[Satellite]
VERSION=1.1
NAME=AMAZONAS 2
NICKNAME=AMAZONAS 2
TLE1=1 35942U 09054A   15054.92071447 -.00000308  00000-0  00000+0 0  9991
TLE2=2 35942   0.0297 141.1192 0000956 176.2017 106.5708  1.00269996 19780
